{"fetched_at":"2026-03-29T02:12:04Z","count":15717,"tles":[{"name":"PIESAT-2 09","line1":"1 62333U 24241A   26085.79263072  .00002280  00000+0  13127-3 0  9995","line2":"2 62333  97.5260  34.3962 0001653  89.9142 270.2279 15.13441455 70338","category":"Other"}]}